STARLINK-34088
1 64025U 25102D   26089.95380416  .01659148  00000+0  12032+0 0  9998
2 64025  70.0004  60.9844 0015898 219.6777 140.3221 15.00404845 49143
